H1 CPF  1  HTS 2005 12 20 12  8541 lageos1          NONE
H2  7603901 1155     8820 2005 12 20  0  0  0 2005 12 28  0  0  0   300 1 1  0 0 0
H5  0.2510 
H9 
10 0 53731  54600.00001  0  -11984532.857    1833068.840    1917285.062
20 0      1283.393384      2676.843850      5282.159505
10 0 53731  54900.00000  0  -11470298.957    2605957.962    3478201.347
20 0      2138.093221      2461.328647      5107.027106
10 0 53731  55200.00000  0  -10706713.410    3301534.299    4971529.199
20 0      2942.466697      2162.578965      4832.240312
10 0 53731  55500.00000  0   -9711753.013    3895987.197    6368074.365
20 0      3677.554323      1788.723895      4462.806139
10 0 53731  55800.00000  0   -8508848.617    4368291.587    7640434.155
20 0      4326.034002      1350.165300      4005.644968
10 0 53731  56100.00000  0   -7126325.058    4700850.757    8763554.567
20 0      4872.672735       859.306306      3469.470855
10 0 53731  56400.00000  0   -5596712.849    4880048.085    9715245.200
20 0      5304.727598       330.217300      2864.630186
10 0 53731  56700.00000  0   -3955948.775    4896690.307   10476639.876
20 0      5612.283418      -221.751553      2202.901742
10 0 53731  57000.00000  0   -2242486.061    4746327.858   11032592.026
20 0      5788.516401      -780.400313      1497.262518
10 0 53731  57300.00001  0    -496337.630    4429441.401   11371995.353
20 0      5829.875370     -1329.139149       761.624764
10 0 53731  57600.00000  0    1241921.937    3951487.599   11488022.055
20 0      5736.175140     -1851.464583        10.550369
10 0 53731  57900.00000  0    2932168.874    3322801.302   11378272.752
20 0      5510.599201     -2331.438034      -741.051069
10 0 53731  58200.00000  0    4535729.841    2558355.602   11044834.206
20 0      5159.611245     -2754.152530     -1478.233974
10 0 53731  58500.00000  0    6016341.500    1677385.413   10494242.895
20 0      4692.777427     -3106.173450     -2186.331432
10 0 53731  58800.00000  0    7341043.919     702884.437    9737354.670
20 0      4122.503777     -3375.939707     -2851.265514
10 0 53731  59100.00000  0    8480983.306    -339010.683    8789122.888
20 0      3463.695771     -3554.112618     -3459.845821
10 0 53731  59400.00000  0    9412102.098   -1419731.592    7668289.688
20 0      2733.349581     -3633.861153     -4000.048765
10 0 53731  59700.00000  0   10115697.647   -2509064.274    6396997.286
20 0      1950.086946     -3611.074137     -4461.270252
10 0 53731  60000.00001  0   10578834.637   -3575986.892    5000328.329
20 0      1133.647743     -3484.492357     -4834.544976
10 0 53731  60300.00000  0   10794600.893   -4589534.685    3505786.206
20 0       304.356032     -3255.756332     -5112.726372
10 0 53731  60600.00000  0   10762201.115   -5519666.349    1942727.901
20 0      -517.423589     -2929.368592     -5290.622521
10 0 53731  60900.00000  0   10486888.217   -6338106.504     341763.082
20 0     -1311.822112     -2512.572507     -5365.084838
10 0 53731  61200.00000  0    9979737.062   -7019139.904   -1265866.120
20 0     -2059.978013     -2015.152899     -5335.048114
10 0 53731  61500.00000  0    9257270.207   -7540335.072   -2848910.098
20 0     -2744.509535     -1449.166508     -5201.522464
10 0 53731  61800.00000  0    8340949.591   -7883177.833   -4376727.396
20 0     -3349.934121      -828.612655     -4967.539534
10 0 53731  62100.00000  0    7256551.666   -8033598.541   -5819877.827
20 0     -3863.024523      -169.056023     -4638.056976
10 0 53731  62400.00000  0    6033446.176   -7982380.544   -7150681.290
20 0     -4273.094114       512.785744     -4219.826303
10 0 53731  62700.00001  0    4703800.537   -7725441.267   -8343732.197
20 0     -4572.206978      1199.476776     -3721.230025
10 0 53731  63000.00000  0    3301732.706   -7263981.078   -9376361.204
20 0     -4755.311287      1873.307639     -3152.094321
10 0 53731  63300.00000  0    1862435.429   -6604498.701  -10229037.845
20 0     -4820.297097      2516.738610     -2523.483402
10 0 53731  63600.00000  0     421294.093   -5758675.121  -10885709.447
20 0     -4767.981862      3112.831557     -1847.481130
10 0 53731  63900.00000  0    -986980.807   -4743130.719  -11334073.206
20 0     -4602.028410      3645.661916     -1136.964554
10 0 53731  64200.00000  0   -2329187.165   -3579062.716  -11565779.587
20 0     -4328.801009      4100.703523      -405.373108
10 0 53731  64500.00000  0   -3574413.058   -2291772.006  -11576566.202
20 0     -3957.165657      4465.180284       333.523768
10 0 53731  64800.00000  0   -4694751.020    -910090.117  -11366321.975
20 0     -3498.240721      4728.379531      1065.858645
10 0 53731  65100.00000  0   -5665930.835     534281.512  -10939081.934
20 0     -2965.103983      4881.922440      1777.896463
10 0 53731  65400.00001  0   -6467858.614    2007506.394  -10302953.263
20 0     -2372.461895      4919.987215      2456.262285
10 0 53731  65700.00000  0   -7085051.708    3474407.185   -9469973.524
20 0     -1736.286760      4839.480697      3088.165542
10 0 53731  66000.00000  0   -7506960.679    4899303.085   -8455902.283
20 0     -1073.427611      4640.154026      3661.619547
10 0 53731  66300.00000  0   -7728171.353    6246872.976   -7279947.822
20 0      -401.200999      4324.657916      4165.654327
10 0 53731  66600.00000  0   -7748481.969    7483025.586   -5964431.342
20 0       263.031264      3898.533554      4590.519987
10 0 53731  66900.00000  0   -7572852.678    8575756.849   -4534392.012
20 0       902.289443      3370.135934      4927.877078
10 0 53731  67200.00000  0   -7211227.179    9495973.865   -3017137.365
20 0      1500.399352      2750.487595      5170.969808
10 0 53731  67500.00000  0   -6678229.119   10218264.456   -1441744.894
20 0      2042.402162      2053.062302      5314.777387
10 0 53731  67800.00000  0   -5992738.901   10721591.478     161477.852
20 0      2514.939975      1293.500150      5356.138442
10 0 53731  68100.00001  0   -5177359.838   10989891.830    1761565.811
20 0      2906.606155       489.257990      5293.843393
10 0 53731  68400.00000  0   -4257785.878   11012561.674    3327491.261
20 0      3208.249363      -340.798299      5128.690078
10 0 53731  68700.00000  0   -3262086.378   10784811.738    4828769.352
20 0      3413.220830     -1176.850412      4863.498750
10 0 53731  69000.00000  0   -2219926.385   10307879.755    6236061.710
20 0      3517.555735     -1998.621289      4503.084029
10 0 53731  69300.00000  0   -1161743.295    9589090.914    7521765.056
20 0      3520.081612     -2785.892357      4054.182907
10 0 53731  69600.00000  0    -117902.553    8641761.419    8660571.659
20 0      3422.449083     -3519.029763      3525.339268
10 0 53731  69900.00000  0     882143.897    7484944.726    9629988.825
20 0      3229.082640     -4179.504297      2926.746553
10 0 53731  70200.00000  0    1810672.413    6143024.700   10410805.266
20 0      2947.051819     -4750.389521      2270.051663
10 0 53731  70500.00000  0    2642452.214    4645164.472   10987493.347
20 0      2585.865819     -5216.823217      1568.124346
10 0 53731  70800.00001  0    3355437.519    3024624.099   11348537.610
20 0      2157.197176     -5566.418359       834.797192
10 0 53731  71100.00000  0    3931367.088    1317964.074   11486681.593
20 0      1674.542293     -5789.611271        84.582030
10 0 53731  71400.00000  0    4356253.666    -435844.837   11399086.822
20 0      1152.828657     -5879.936319      -667.630973
10 0 53731  71700.00000  0    4620748.997   -2196382.049   11087399.768
20 0       607.980180     -5834.218573     -1406.884769
10 0 53731  72000.00000  0    4720373.752   -3922782.269   10557724.651
20 0        56.453459     -5652.677982     -2118.470504
10 0 53731  72300.00000  0    4655605.686   -5574758.045    9820502.092
20 0      -485.241226     -5338.940959     -2788.238903
10 0 53731  72600.00000  0    4431823.614   -7113611.682    8890295.835
20 0     -1001.019635     -4899.957949     -3402.900434
10 0 53731  72900.00000  0    4059109.222   -8503208.494    7785492.063
20 0     -1475.689203     -4345.828564     -3950.306620
10 0 53731  73200.00000  0    3551913.116   -9710884.269    6527918.064
20 0     -1895.386090     -3689.538997     -4419.705231
10 0 53731  73500.00001  0    2928595.759  -10708261.739    5142389.109
20 0     -2247.970046     -2946.619408     -4801.962609
10 0 53731  73800.00000  0    2210857.828  -11471953.537    3656194.298
20 0     -2523.364823     -2134.731830     -5089.747330
10 0 53731  74100.00000  0    1423077.945  -11984132.704    2098533.710
20 0     -2713.833814     -1273.201576     -5277.670552
10 0 53731  74400.00000  0     591578.452  -12232955.986     499920.368
20 0     -2814.182889      -382.507053     -5362.379766
10 0 53731  74700.00000  0    -256158.031  -12212829.878   -1108438.671
20 0     -2821.885084       516.255583     -5342.604080
10 0 53731  75000.00000  0   -1092297.402  -11924514.449   -2695267.524
20 0     -2737.124825      1401.915535     -5219.151054
10 0 53731  75300.00000  0   -1889464.155  -11375065.252   -4229838.710
20 0     -2562.762670      2253.761034     -4994.857221
10 0 53731  75600.00000  0   -2621529.427  -10577618.517   -5682569.070
20 0     -2304.224542      3052.047922     -4674.496299
10 0 53731  75900.00000  0   -3264355.246   -9551029.247   -7025582.435
20 0     -1969.321793      3778.469696     -4264.650221
10 0 53731  76200.00001  0   -3796475.431   -8319375.499   -8233228.763
20 0     -1568.010261      4416.577999     -3773.548901
10 0 53731  76500.00000  0   -4199696.226   -6911345.009   -9282551.290
20 0     -1112.097732      4952.145247     -3210.885006
10 0 53731  76800.00000  0   -4459602.686   -5359522.444  -10153695.152
20 0      -614.909912      5373.463930     -2587.609933
10 0 53731  77100.00000  0   -4565959.903   -3699596.745  -10830252.679
20 0       -90.925001      5671.579603     -1915.716529
99